ONEWEB-0553             
1 56055U 23043K   23279.58335648 -.01403879  00000+0 -40763+0 0  9990
2 56055  87.1537  67.9029 0003137  63.0949  53.2602 14.47785050 29956
ONEWEB-0554             
1 56056U 23043L   23279.58335648 -.01393589  00000+0 -42432+0 0  9992
2 56056  87.1590  67.7824 0002238 140.4749 186.2062 14.45448416 29953
ONEWEB-0555             
1 56057U 23043M   23279.25001157 -.01306014  00000+0 -37962+0 0  9991
2 56057  87.1464  67.9369 0003474 118.6762 203.7420 14.48051851 29909
ONEWEB-0557             
1 56058U 23043N   23279.58335648 -.01372954  00000+0 -42153+0 0  9997
2 56058  87.1593  67.7778 0002521 109.7517 268.7779 14.44991154 29954
ONEWEB-0558             
1 56059U 23043P   23279.40602921  .00000125  00000+0  27017-3 0  9991
2 56059  87.9186  80.0375 0001935  73.8832 286.2514 13.21824931 29056
ONEWEB-0559             
1 56060U 23043Q   23278.86354302  .00000059  00000+0  11221-3 0  9995
2 56060  87.9187  80.1460 0002500  86.4530 273.6889 13.21828088 28993
ONEWEB-0566             
1 56061U 23043R   23279.46282334 -.00002257  00000+0 -55006-2 0  9990
2 56061  87.9180  80.0280 0002563  57.6109 302.5272 13.21798359 29050
ONEWEB-0568             
1 56062U 23043S   23279.58335648 -.01381956  00000+0 -38875+0 0  9990
2 56062  87.1525  67.9460 0003691 114.1913 134.7087 14.49251158 29944
