<?xml version="1.0" encoding="UTF-8"?>
<ndm xmlns:xsi="http://www.w3.org/2001/XMLSchema-instance" xsi:noNamespaceSchemaLocation="https://sanaregistry.org/r/ndmxml_unqualified/ndmxml-2.0.0-master-2.0.xsd">
<omm id="CCSDS_OMM_VERS" version="2.0">
<header><CREATION_DATE/><ORIGINATOR/></header><body><segment><metadata><OBJECT_NAME>ONEWEB-0553</OBJECT_NAME><OBJECT_ID>2023-043K</OBJECT_ID><CENTER_NAME>EARTH</CENTER_NAME><REF_FRAME>TEME</REF_FRAME><TIME_SYSTEM>UTC</TIME_SYSTEM><MEAN_ELEMENT_THEORY>SGP4</MEAN_ELEMENT_THEORY></metadata><data><meanElements><EPOCH>2023-10-06T14:00:01.999872</EPOCH><MEAN_MOTION>14.47785050</MEAN_MOTION><ECCENTRICITY>.0003137</ECCENTRICITY><INCLINATION>87.1537</INCLINATION><RA_OF_ASC_NODE>67.9029</RA_OF_ASC_NODE><ARG_OF_PERICENTER>63.0949</ARG_OF_PERICENTER><MEAN_ANOMALY>53.2602</MEAN_ANOMALY></meanElements><tleParameters><EPHEMERIS_TYPE>0</EPHEMERIS_TYPE><CLASSIFICATION_TYPE>U</CLASSIFICATION_TYPE><NORAD_CAT_ID>56055</NORAD_CAT_ID><ELEMENT_SET_NO>999</ELEMENT_SET_NO><REV_AT_EPOCH>2995</REV_AT_EPOCH><BSTAR>-.40763E+0</BSTAR><MEAN_MOTION_DOT>-.1403879E-1</MEAN_MOTION_DOT><MEAN_MOTION_DDOT>0</MEAN_MOTION_DDOT></tleParameters></data></segment></body></omm>
<omm id="CCSDS_OMM_VERS" version="2.0">
<header><CREATION_DATE/><ORIGINATOR/></header><body><segment><metadata><OBJECT_NAME>ONEWEB-0554</OBJECT_NAME><OBJECT_ID>2023-043L</OBJECT_ID><CENTER_NAME>EARTH</CENTER_NAME><REF_FRAME>TEME</REF_FRAME><TIME_SYSTEM>UTC</TIME_SYSTEM><MEAN_ELEMENT_THEORY>SGP4</MEAN_ELEMENT_THEORY></metadata><data><meanElements><EPOCH>2023-10-06T14:00:01.999872</EPOCH><MEAN_MOTION>14.45448416</MEAN_MOTION><ECCENTRICITY>.0002238</ECCENTRICITY><INCLINATION>87.1590</INCLINATION><RA_OF_ASC_NODE>67.7824</RA_OF_ASC_NODE><ARG_OF_PERICENTER>140.4749</ARG_OF_PERICENTER><MEAN_ANOMALY>186.2062</MEAN_ANOMALY></meanElements><tleParameters><EPHEMERIS_TYPE>0</EPHEMERIS_TYPE><CLASSIFICATION_TYPE>U</CLASSIFICATION_TYPE><NORAD_CAT_ID>56056</NORAD_CAT_ID><ELEMENT_SET_NO>999</ELEMENT_SET_NO><REV_AT_EPOCH>2995</REV_AT_EPOCH><BSTAR>-.42432E+0</BSTAR><MEAN_MOTION_DOT>-.1393589E-1</MEAN_MOTION_DOT><MEAN_MOTION_DDOT>0</MEAN_MOTION_DDOT></tleParameters></data></segment></body></omm>
<omm id="CCSDS_OMM_VERS" version="2.0">
<header><CREATION_DATE/><ORIGINATOR/></header><body><segment><metadata><OBJECT_NAME>ONEWEB-0555</OBJECT_NAME><OBJECT_ID>2023-043M</OBJECT_ID><CENTER_NAME>EARTH</CENTER_NAME><REF_FRAME>TEME</REF_FRAME><TIME_SYSTEM>UTC</TIME_SYSTEM><MEAN_ELEMENT_THEORY>SGP4</MEAN_ELEMENT_THEORY></metadata><data><meanElements><EPOCH>2023-10-06T06:00:00.999648</EPOCH><MEAN_MOTION>14.48051851</MEAN_MOTION><ECCENTRICITY>.0003474</ECCENTRICITY><INCLINATION>87.1464</INCLINATION><RA_OF_ASC_NODE>67.9369</RA_OF_ASC_NODE><ARG_OF_PERICENTER>118.6762</ARG_OF_PERICENTER><MEAN_ANOMALY>203.7420</MEAN_ANOMALY></meanElements><tleParameters><EPHEMERIS_TYPE>0</EPHEMERIS_TYPE><CLASSIFICATION_TYPE>U</CLASSIFICATION_TYPE><NORAD_CAT_ID>56057</NORAD_CAT_ID><ELEMENT_SET_NO>999</ELEMENT_SET_NO><REV_AT_EPOCH>2990</REV_AT_EPOCH><BSTAR>-.37962E+0</BSTAR><MEAN_MOTION_DOT>-.1306014E-1</MEAN_MOTION_DOT><MEAN_MOTION_DDOT>0</MEAN_MOTION_DDOT></tleParameters></data></segment></body></omm>
<omm id="CCSDS_OMM_VERS" version="2.0">
<header><CREATION_DATE/><ORIGINATOR/></header><body><segment><metadata><OBJECT_NAME>ONEWEB-0557</OBJECT_NAME><OBJECT_ID>2023-043N</OBJECT_ID><CENTER_NAME>EARTH</CENTER_NAME><REF_FRAME>TEME</REF_FRAME><TIME_SYSTEM>UTC</TIME_SYSTEM><MEAN_ELEMENT_THEORY>SGP4</MEAN_ELEMENT_THEORY></metadata><data><meanElements><EPOCH>2023-10-06T14:00:01.999872</EPOCH><MEAN_MOTION>14.44991154</MEAN_MOTION><ECCENTRICITY>.0002521</ECCENTRICITY><INCLINATION>87.1593</INCLINATION><RA_OF_ASC_NODE>67.7778</RA_OF_ASC_NODE><ARG_OF_PERICENTER>109.7517</ARG_OF_PERICENTER><MEAN_ANOMALY>268.7779</MEAN_ANOMALY></meanElements><tleParameters><EPHEMERIS_TYPE>0</EPHEMERIS_TYPE><CLASSIFICATION_TYPE>U</CLASSIFICATION_TYPE><NORAD_CAT_ID>56058</NORAD_CAT_ID><ELEMENT_SET_NO>999</ELEMENT_SET_NO><REV_AT_EPOCH>2995</REV_AT_EPOCH><BSTAR>-.42153E+0</BSTAR><MEAN_MOTION_DOT>-.1372954E-1</MEAN_MOTION_DOT><MEAN_MOTION_DDOT>0</MEAN_MOTION_DDOT></tleParameters></data></segment></body></omm>
<omm id="CCSDS_OMM_VERS" version="2.0">
<header><CREATION_DATE/><ORIGINATOR/></header><body><segment><metadata><OBJECT_NAME>ONEWEB-0558</OBJECT_NAME><OBJECT_ID>2023-043P</OBJECT_ID><CENTER_NAME>EARTH</CENTER_NAME><REF_FRAME>TEME</REF_FRAME><TIME_SYSTEM>UTC</TIME_SYSTEM><MEAN_ELEMENT_THEORY>SGP4</MEAN_ELEMENT_THEORY></metadata><data><meanElements><EPOCH>2023-10-06T09:44:40.923744</EPOCH><MEAN_MOTION>13.21824931</MEAN_MOTION><ECCENTRICITY>.0001935</ECCENTRICITY><INCLINATION>87.9186</INCLINATION><RA_OF_ASC_NODE>80.0375</RA_OF_ASC_NODE><ARG_OF_PERICENTER>73.8832</ARG_OF_PERICENTER><MEAN_ANOMALY>286.2514</MEAN_ANOMALY></meanElements><tleParameters><EPHEMERIS_TYPE>0</EPHEMERIS_TYPE><CLASSIFICATION_TYPE>U</CLASSIFICATION_TYPE><NORAD_CAT_ID>56059</NORAD_CAT_ID><ELEMENT_SET_NO>999</ELEMENT_SET_NO><REV_AT_EPOCH>2905</REV_AT_EPOCH><BSTAR>.27017E-3</BSTAR><MEAN_MOTION_DOT>.125E-5</MEAN_MOTION_DOT><MEAN_MOTION_DDOT>0</MEAN_MOTION_DDOT></tleParameters></data></segment></body></omm>
<omm id="CCSDS_OMM_VERS" version="2.0">
<header><CREATION_DATE/><ORIGINATOR/></header><body><segment><metadata><OBJECT_NAME>ONEWEB-0559</OBJECT_NAME><OBJECT_ID>2023-043Q</OBJECT_ID><CENTER_NAME>EARTH</CENTER_NAME><REF_FRAME>TEME</REF_FRAME><TIME_SYSTEM>UTC</TIME_SYSTEM><MEAN_ELEMENT_THEORY>SGP4</MEAN_ELEMENT_THEORY></metadata><data><meanElements><EPOCH>2023-10-05T20:43:30.116928</EPOCH><MEAN_MOTION>13.21828088</MEAN_MOTION><ECCENTRICITY>.00025</ECCENTRICITY><INCLINATION>87.9187</INCLINATION><RA_OF_ASC_NODE>80.1460</RA_OF_ASC_NODE><ARG_OF_PERICENTER>86.4530</ARG_OF_PERICENTER><MEAN_ANOMALY>273.6889</MEAN_ANOMALY></meanElements><tleParameters><EPHEMERIS_TYPE>0</EPHEMERIS_TYPE><CLASSIFICATION_TYPE>U</CLASSIFICATION_TYPE><NORAD_CAT_ID>56060</NORAD_CAT_ID><ELEMENT_SET_NO>999</ELEMENT_SET_NO><REV_AT_EPOCH>2899</REV_AT_EPOCH><BSTAR>.11221E-3</BSTAR><MEAN_MOTION_DOT>.59E-6</MEAN_MOTION_DOT><MEAN_MOTION_DDOT>0</MEAN_MOTION_DDOT></tleParameters></data></segment></body></omm>
<omm id="CCSDS_OMM_VERS" version="2.0">
<header><CREATION_DATE/><ORIGINATOR/></header><body><segment><metadata><OBJECT_NAME>ONEWEB-0566</OBJECT_NAME><OBJECT_ID>2023-043R</OBJECT_ID><CENTER_NAME>EARTH</CENTER_NAME><REF_FRAME>TEME</REF_FRAME><TIME_SYSTEM>UTC</TIME_SYSTEM><MEAN_ELEMENT_THEORY>SGP4</MEAN_ELEMENT_THEORY></metadata><data><meanElements><EPOCH>2023-10-06T11:06:27.936576</EPOCH><MEAN_MOTION>13.21798359</MEAN_MOTION><ECCENTRICITY>.0002563</ECCENTRICITY><INCLINATION>87.9180</INCLINATION><RA_OF_ASC_NODE>80.0280</RA_OF_ASC_NODE><ARG_OF_PERICENTER>57.6109</ARG_OF_PERICENTER><MEAN_ANOMALY>302.5272</MEAN_ANOMALY></meanElements><tleParameters><EPHEMERIS_TYPE>0</EPHEMERIS_TYPE><CLASSIFICATION_TYPE>U</CLASSIFICATION_TYPE><NORAD_CAT_ID>56061</NORAD_CAT_ID><ELEMENT_SET_NO>999</ELEMENT_SET_NO><REV_AT_EPOCH>2905</REV_AT_EPOCH><BSTAR>-.55006E-2</BSTAR><MEAN_MOTION_DOT>-.2257E-4</MEAN_MOTION_DOT><MEAN_MOTION_DDOT>0</MEAN_MOTION_DDOT></tleParameters></data></segment></body></omm>
<omm id="CCSDS_OMM_VERS" version="2.0">
<header><CREATION_DATE/><ORIGINATOR/></header><body><segment><metadata><OBJECT_NAME>ONEWEB-0568</OBJECT_NAME><OBJECT_ID>2023-043S</OBJECT_ID><CENTER_NAME>EARTH</CENTER_NAME><REF_FRAME>TEME</REF_FRAME><TIME_SYSTEM>UTC</TIME_SYSTEM><MEAN_ELEMENT_THEORY>SGP4</MEAN_ELEMENT_THEORY></metadata><data><meanElements><EPOCH>2023-10-06T14:00:01.999872</EPOCH><MEAN_MOTION>14.49251158</MEAN_MOTION><ECCENTRICITY>.0003691</ECCENTRICITY><INCLINATION>87.1525</INCLINATION><RA_OF_ASC_NODE>67.9460</RA_OF_ASC_NODE><ARG_OF_PERICENTER>114.1913</ARG_OF_PERICENTER><MEAN_ANOMALY>134.7087</MEAN_ANOMALY></meanElements><tleParameters><EPHEMERIS_TYPE>0</EPHEMERIS_TYPE><CLASSIFICATION_TYPE>U</CLASSIFICATION_TYPE><NORAD_CAT_ID>56062</NORAD_CAT_ID><ELEMENT_SET_NO>999</ELEMENT_SET_NO><REV_AT_EPOCH>2994</REV_AT_EPOCH><BSTAR>-.38875E+0</BSTAR><MEAN_MOTION_DOT>-.1381956E-1</MEAN_MOTION_DOT><MEAN_MOTION_DDOT>0</MEAN_MOTION_DDOT></tleParameters></data></segment></body></omm>

</ndm>
